NORAD_CAT_ID,OBJECT_NAME,OBJECT_TYPE,EPOCH,MEAN_MOTION,ECCENTRICITY,INCLINATION,RA_OF_ASC_NODE,ARG_OF_PERICENTER,MEAN_ANOMALY,BSTAR,MEAN_MOTION_DOT,MEAN_MOTION_DDOT,TLE_LINE0,TLE_LINE1,TLE_LINE2,SEMIMAJOR_AXIS,PERIOD,APOGEE,PERIGEE,DECAYED
51117.0,STARLINK-3391,PAYLOAD,2022-01-24 16:00:00,15.9434247,0.0053981,53.2177,247.5772,182.7251,36.891,-0.0019263,-0.00860637,0.00023888,0 STARLINK-3391,1 51117U 22005P   22024.66667824 -.00860637  23888-3 -19263-2 0  9996,2 51117  53.2177 247.5772 0053981 182.7251  36.8910 15.94342470  2196,6668.284000000002,90.319,326.145,254.153,0.0
51117.0,STARLINK-3391,PAYLOAD,2022-01-25 06:00:00,15.93341989,0.0049072,53.2173,244.6022,186.4048,142.2388,-0.0022191,-0.00912963,0.00026305,0 STARLINK-3391,1 51117U 22005P   22025.25001157 -.00912963  26305-3 -22191-2 0  9994,2 51117  53.2173 244.6022 0049072 186.4048 142.2388 15.93341989  2283,6671.075,90.376,325.677,260.204,0.0
51117.0,STARLINK-3391,PAYLOAD,2022-01-25 14:00:01,15.9275237,0.0045858,53.2174,242.9024,188.1045,253.3076,-0.0023041,-0.00903892,0.00025685,0 STARLINK-3391,1 51117U 22005P   22025.58334491 -.00903892  25685-3 -23041-2 0  9996,2 51117  53.2174 242.9024 0045858 188.1045 253.3076 15.92752370  2334,6672.722,90.41,325.186,263.987,0.0
51117.0,STARLINK-3391,PAYLOAD,2022-01-25 22:00:00,15.92148937,0.0042766,53.2174,241.2076,190.2185,3.2619,-0.0023181,-0.00868621,0.00023765,0 STARLINK-3391,1 51117U 22005P   22025.91667824 -.00868621  23765-3 -23181-2 0  9994,2 51117  53.2174 241.2076 0042766 190.2185   3.2619 15.92148937  2385,6674.406999999997,90.444,324.816,267.72900000000004,0.0
51117.0,STARLINK-3391,PAYLOAD,2022-01-26 06:00:00,15.91580154,0.0040546,53.2175,239.5109,191.0729,113.7612,-0.002511,-0.00904131,0.00025404,0 STARLINK-3391,1 51117U 22005P   22026.25001157 -.00904131  25404-3 -25110-2 0  9996,2 51117  53.2175 239.5109 0040546 191.0729 113.7612 15.91580154  2447,6675.996999999999,90.476,324.931,270.79400000000004,0.0
51117.0,STARLINK-3391,PAYLOAD,2022-01-26 14:00:01,15.91000188,0.0037516,53.2177,237.8157,193.536,221.9511,-0.0026516,-0.00915343,0.0002583,0 STARLINK-3391,1 51117U 22005P   22026.58334491 -.00915343  25830-3 -26516-2 0  9993,2 51117  53.2177 237.8157 0037516 193.5360 221.9511 15.91000188  2493,6677.62,90.509,324.5370000000001,274.433,0.0
51117.0,STARLINK-3391,PAYLOAD,2022-01-26 22:00:00,15.90395676,0.00342,53.2176,236.1252,196.7466,328.6967,-0.0026525,-0.0087758,0.00023801,0 STARLINK-3391,1 51117U 22005P   22026.91667824 -.00877580  23801-3 -26525-2 0  9995,2 51117  53.2176 236.1252 0034200 196.7466 328.6967 15.90395676  2543,6679.312,90.544,324.02,278.334,0.0
51117.0,STARLINK-3391,PAYLOAD,2022-01-27 04:00:00,15.89958862,0.0032613,53.2172,234.8561,198.6274,318.8166,-0.0027457,-0.00883613,0.00023997,0 STARLINK-3391,1 51117U 22005P   22027.16667824 -.00883613  23997-3 -27457-2 0  9998,2 51117  53.2172 234.8561 0032613 198.6274 318.8166 15.89958862  2587,6680.535,90.568,324.187,280.613,0.0
51117.0,STARLINK-3391,PAYLOAD,2022-01-27 14:00:01,15.8924516,0.0029279,53.2176,232.7421,201.2149,182.0117,-0.0029995,-0.00921411,0.00025706,0 STARLINK-3391,1 51117U 22005P   22027.58334491 -.00921411  25706-3 -29995-2 0  9993,2 51117  53.2176 232.7421 0029279 201.2149 182.0117 15.89245160  1743,6682.535,90.609,323.966,284.834,0.0
51117.0,STARLINK-3391,PAYLOAD,2022-01-27 19:56:26,15.88957001,0.0029777,53.2237,231.4933,205.858,154.0961,-0.00042051,-0.00130819,1.6313e-05,0 STARLINK-3391,1 51117U 22005P   22027.83085787 -.00130819  16313-4 -42051-3 0  9990,2 51117  53.2237 231.4933 0029777 205.8580 154.0961 15.88957001  2691,6683.343000000003,90.625,325.1090000000001,285.307,0.0
51117.0,STARLINK-3391,PAYLOAD,2022-01-28 06:00:02,15.88054891,0.0024159,53.2175,229.3675,208.5264,29.7459,-0.0030921,-0.00883743,0.00023576,0 STARLINK-3391,1 51117U 22005P   22028.25002315 -.00883743  23576-3 -30921-2 0  9994,2 51117  53.2175 229.3675 0024159 208.5264  29.7459 15.88054891  2762,6685.874,90.677,323.891,291.586,0.0
51117.0,STARLINK-3391,PAYLOAD,2022-01-28 10:00:00,15.87770589,0.0022485,53.2173,228.5239,210.5606,260.9462,-0.0032114,-0.00901621,0.00024379,0 STARLINK-3391,1 51117U 22005P   22028.41667824 -.00901621  24379-3 -32114-2 0  9998,2 51117  53.2173 228.5239 0022485 210.5606 260.9462 15.87770589  2783,6686.672,90.693,323.572,293.502,0.0
51117.0,STARLINK-3391,PAYLOAD,2022-01-28 12:00:00,15.87612446,0.0021985,53.2173,228.1024,210.6801,17.4163,-0.0031515,-0.00877205,0.00023167,0 STARLINK-3391,1 51117U 22005P   22028.50001157 -.00877205  23167-3 -31515-2 0  9997,2 51117  53.2173 228.1024 0021985 210.6801  17.4163 15.87612446  1883,6687.116,90.702,323.682,294.279,0.0
51117.0,STARLINK-3391,PAYLOAD,2022-01-28 20:00:01,15.87044716,0.0019666,53.2173,226.4203,216.357,117.6345,-0.0033982,-0.00915402,0.00024889,0 STARLINK-3391,1 51117U 22005P   22028.83334491 -.00915402  24889-3 -33982-2 0  9997,2 51117  53.2173 226.4203 0019666 216.3570 117.6345 15.87044716  2854,6688.71,90.735,323.73,297.421,0.0
51117.0,STARLINK-3391,PAYLOAD,2022-01-28 22:00:00,15.86896828,0.0019023,53.2175,225.9998,217.4604,232.8968,-0.0034133,-0.00911835,0.0002468,0 STARLINK-3391,1 51117U 22005P   22028.91667824 -.00911835  24680-3 -34133-2 0  9999,2 51117  53.2175 225.9998 0019023 217.4604 232.8968 15.86896828  1957,6689.126,90.743,323.716,298.266,0.0
51117.0,STARLINK-3391,PAYLOAD,2022-01-29 14:00:01,15.85720473,0.0014601,53.2178,222.6341,228.3962,71.3044,-0.003596,-0.00824924,0.0,0 STARLINK-3391,1 51117U 22005P   22029.58334491 -.00824924  00000-0 -35960-2 0  9992,2 51117  53.2178 222.6341 0014601 228.3962  71.3044 15.85720473  2976,6692.434,90.81,324.07,304.527,0.0
51117.0,STARLINK-3391,PAYLOAD,2022-01-29 22:00:00,15.85144545,0.0012386,53.2177,220.9567,238.5434,164.7672,-0.0037999,-0.00843067,0.0,0 STARLINK-3391,1 51117U 22005P   22029.91667824 -.00843067  00000-0 -37999-2 0  9991,2 51117  53.2177 220.9567 0012386 238.5434 164.7672 15.85144545  2111,6694.055,90.843,324.211,307.629,0.0
51117.0,STARLINK-3391,PAYLOAD,2022-01-30 06:00:00,15.84545622,0.0010868,53.2174,219.2767,247.3583,258.8681,-0.0038003,-0.0081952999999999,0.0,0 STARLINK-3391,1 51117U 22005P   22030.25001157 -.00819530  00000-0 -38003-2 0  9996,2 51117  53.2174 219.2767 0010868 247.3583 258.8681 15.84545622  3078,6695.741,90.878,324.883,310.33,0.0
51117.0,STARLINK-3391,PAYLOAD,2022-01-30 14:00:01,15.8395329,0.0009035,53.2175,217.5998,260.2729,348.1617,-0.0038514,-0.00806661,0.0,0 STARLINK-3391,1 51117U 22005P   22030.58334491 -.00806661  00000-0 -38514-2 0  9990,2 51117  53.2175 217.5998 0009035 260.2729 348.1617 15.83953290  2227,6697.411,90.912,325.327,313.225,0.0
51117.0,STARLINK-3391,PAYLOAD,2022-01-30 22:00:00,15.83372141,0.0007126,53.2175,215.9265,268.7438,81.1903,-0.004012,-0.00814961,0.0,0 STARLINK-3391,1 51117U 22005P   22030.91667824 -.00814961  00000-0 -40120-2 0  9994,2 51117  53.2175 215.9265 0007126 268.7438  81.1903 15.83372141  2272,6699.049,90.945,325.688,316.141,0.0
51117.0,STARLINK-3391,PAYLOAD,2022-01-31 06:00:00,15.82800755,0.0004731,53.2176,214.2508,269.9581,180.7703,-0.0042662,-0.00839395,0.0,0 STARLINK-3391,1 51117U 22005P   22031.25001157 -.00839395  00000-0 -42662-2 0  9994,2 51117  53.2176 214.2508 0004731 269.9581 180.7703 15.82800755  3233,6700.661,90.978,325.697,319.356,0.0
51117.0,STARLINK-3391,PAYLOAD,2022-01-31 14:00:01,15.82204373,0.000249,53.2178,212.5784,273.9177,276.9744,-0.004288,-0.00820879,0.0,0 STARLINK-3391,1 51117U 22005P   22031.58335648 -.00820879  00000-0 -42880-2 0  9994,2 51117  53.2178 212.5784 0002490 273.9177 276.9744 15.82204373  2380,6702.345,91.012,325.879,322.541,0.0
51117.0,STARLINK-3391,PAYLOAD,2022-01-31 22:00:01,15.81609882,3.33e-05,53.2175,210.9094,298.8932,351.3911,-0.0043218,-0.00805297,0.0,0 STARLINK-3391,1 51117U 22005P   22031.91668981 -.00805297  00000-0 -43218-2 0  9993,2 51117  53.2175 210.9094 0000333 298.8932 351.3911 15.81609882  2435,6704.025,91.046,326.113,325.666,0.0
51117.0,STARLINK-3391,PAYLOAD,2022-02-01 06:00:00,15.81032754,7.929999999999999e-05,53.2174,209.2381,75.6239,313.2785,-0.0045287,-0.00820103,0.0,0 STARLINK-3391,1 51117U 22005P   22032.25001157 -.00820103  00000-0 -45287-2 0  9998,2 51117  53.2174 209.2381 0000793  75.6239 313.2785 15.81032754  3395,6705.656,91.08,328.05300000000005,326.9890000000001,0.0
51117.0,STARLINK-3391,PAYLOAD,2022-02-01 14:00:01,15.80446266,0.000125,53.2175,207.57,54.3246,72.6253,-0.0046461,-0.00819004,0.0,0 STARLINK-3391,1 51117U 22005P   22032.58335648 -.00819004  00000-0 -46461-2 0  9992,2 51117  53.2175 207.5700 0001250  54.3246  72.6253 15.80446266  2541,6707.315,91.114,330.01800000000014,328.341,0.0
51117.0,STARLINK-3391,PAYLOAD,2022-02-01 22:00:00,15.79857516,0.0001149,53.2176,205.9052,79.9287,144.2332,-0.0047432,-0.00814133,0.0,0 STARLINK-3391,1 51117U 22005P   22032.91667824 -.00814133  00000-0 -47432-2 0  9990,2 51117  53.2176 205.9052 0001149  79.9287 144.2332 15.79857516  2590,6708.981,91.147,331.617,330.075,0.0
51117.0,STARLINK-3391,PAYLOAD,2022-02-02 06:00:00,15.79276326,0.0001022,53.2176,204.238,71.7417,248.9933,-0.0049212,-0.00821673,0.0,0 STARLINK-3391,1 51117U 22005P   22033.25001157 -.00821673  00000-0 -49212-2 0  9994,2 51117  53.2176 204.2380 0001022  71.7417 248.9933 15.79276326  3551,6710.627,91.181,333.17800000000005,331.806,0.0
51117.0,STARLINK-3391,PAYLOAD,2022-02-02 14:00:01,15.78691242,0.0001181,53.2176,202.5748,52.3652,4.239,-0.0050631,-0.00823008,0.0,0 STARLINK-3391,1 51117U 22005P   22033.58334491 -.00823008  00000-0 -50631-2 0  9991,2 51117  53.2176 202.5748 0001181  52.3652   4.2390 15.78691242  2705,6712.285,91.215,334.9430000000001,333.357,0.0
51117.0,STARLINK-3391,PAYLOAD,2022-02-02 22:00:00,15.78098881,0.0001146,53.2172,200.9141,69.9768,81.7944,-0.0051239,-0.00811867,0.0,0 STARLINK-3391,1 51117U 22005P   22033.91667824 -.00811867  00000-0 -51239-2 0  9992,2 51117  53.2172 200.9141 0001146  69.9768  81.7944 15.78098881  2753,6713.964,91.249,336.599,335.06,0.0
